$GPGGA,120500.00,3655.8994,N,02712.2381,E,6,08,21.2,5.0,M,0.0,M,,*66
$GPRMC,120500.00,A,3655.8994,N,02712.2381,E,5.8,80.0,100826,,,A*67
$GPGGA,121000.00,3655.9765,N,02712.8614,E,6,08,30.1,5.0,M,0.0,M,,*63
$GPRMC,121000.00,A,3655.9765,N,02712.8614,E,5.8,80.0,100826,,,A*61
$GPGGA,121500.00,3656.0661,N,02713.4196,E,1,08,2.6,5.0,M,0.0,M,,*58
$GPRMC,121500.00,A,3656.0661,N,02713.4196,E,5.8,80.0,100826,,,A*6B
$GPGGA,122000.00,3656.1490,N,02714.0327,E,1,08,14.2,5.0,M,0.0,M,,*6B
$GPRMC,122000.00,A,3656.1490,N,02714.0327,E,5.8,80.0,100826,,,A*6B
$GPGGA,122500.00,3656.2279,N,02714.6518,E,1,08,22.5,5.0,M,0.0,M,,*62
$GPRMC,122500.00,A,3656.2279,N,02714.6518,E,5.8,80.0,100826,,,A*60
$GPGGA,123000.00,3656.3225,N,02715.2191,E,1,08,2.6,5.0,M,0.0,M,,*5F
$GPRMC,123000.00,A,3656.3225,N,02715.2191,E,5.8,80.0,100826,,,A*6C
$GPGGA,123500.00,3656.4072,N,02715.8365,E,1,08,14.3,5.0,M,0.0,M,,*6C
$GPRMC,123500.00,A,3656.4072,N,02715.8365,E,5.8,80.0,100826,,,A*6D
$GPGGA,124000.00,3656.4891,N,02716.4428,E,1,08,22.0,5.0,M,0.0,M,,*6C
$GPRMC,124000.00,A,3656.4891,N,02716.4428,E,5.8,80.0,100826,,,A*6B
$GPGGA,124500.00,3656.5749,N,02717.0143,E,1,08,2.3,5.0,M,0.0,M,,*5E
$GPRMC,124500.00,A,3656.5749,N,02717.0143,E,5.8,80.0,100826,,,A*68
$GPGGA,125000.00,3656.6608,N,02717.6272,E,1,08,14.0,5.0,M,0.0,M,,*6E
$GPRMC,125000.00,A,3656.6608,N,02717.6272,E,5.8,80.0,100826,,,A*6C
$GPGGA,125500.00,3656.7488,N,02718.2470,E,1,08,21.8,5.0,M,0.0,M,,*61
$GPRMC,125500.00,A,3656.7488,N,02718.2470,E,5.8,80.0,100826,,,A*6D
$GPGGA,130000.00,3656.8251,N,02718.8091,E,1,08,2.3,5.0,M,0.0,M,,*56
$GPRMC,130000.00,A,3656.8251,N,02718.8091,E,5.8,80.0,100826,,,A*60
$GPGGA,130500.00,3656.9052,N,02719.4378,E,1,08,14.1,5.0,M,0.0,M,,*6F
$GPRMC,130500.00,A,3656.9052,N,02719.4378,E,5.8,110.0,100826,,,A*54
$GPGGA,131000.00,3656.7340,N,02720.0189,E,1,08,21.5,5.0,M,0.0,M,,*65
$GPRMC,131000.00,A,3656.7340,N,02720.0189,E,5.8,110.0,100826,,,A*5C
$GPGGA,131500.00,3656.3323,N,02720.5188,E,1,08,3.2,5.0,M,0.0,M,,*52
$GPRMC,131500.00,A,3656.3323,N,02720.5188,E,5.8,110.0,100826,,,A*5C
$GPGGA,132000.00,3656.1102,N,02721.0678,E,1,08,15.0,5.0,M,0.0,M,,*6E
$GPRMC,132000.00,A,3656.1102,N,02721.0678,E,5.8,110.0,100826,,,A*55
$GPGGA,132500.00,3655.8877,N,02721.6276,E,1,08,22.6,5.0,M,0.0,M,,*64
$GPRMC,132500.00,A,3655.8877,N,02721.6276,E,5.8,110.0,100826,,,A*5D
$GPGGA,133000.00,3655.8252,N,02722.2328,E,1,08,3.8,5.0,M,0.0,M,,*5D
$GPRMC,133000.00,A,3655.8252,N,02722.2328,E,5.8,110.0,100826,,,A*59
$GPGGA,133500.00,3655.6348,N,02722.8085,E,1,08,14.4,5.0,M,0.0,M,,*68
$GPRMC,133500.00,A,3655.6348,N,02722.8085,E,5.8,110.0,100826,,,A*56
$GPGGA,134000.00,3655.4470,N,02723.3903,E,1,08,22.1,5.0,M,0.0,M,,*69
$GPRMC,134000.00,A,3655.4470,N,02723.3903,E,5.8,110.0,100826,,,A*57
$GPGGA,134500.00,3655.3310,N,02723.9447,E,1,08,4.0,5.0,M,0.0,M,,*58
$GPRMC,134500.00,A,3655.3310,N,02723.9447,E,5.8,110.0,100826,,,A*53
$GPGGA,135000.00,3655.1536,N,02724.5375,E,1,08,14.9,5.0,M,0.0,M,,*69
$GPRMC,135000.00,A,3655.1536,N,02724.5375,E,5.8,110.0,100826,,,A*5A
$GPGGA,135500.00,3654.9728,N,02725.1237,E,1,08,22.6,5.0,M,0.0,M,,*60
$GPRMC,135500.00,A,3654.9728,N,02725.1237,E,5.8,110.0,100826,,,A*59
$GPGGA,140000.00,3654.8290,N,02725.6637,E,1,08,4.1,5.0,M,0.0,M,,*50
$GPRMC,140000.00,A,3654.8290,N,02725.6637,E,5.8,110.0,100826,,,A*5A
